DMSP 5D-3 F16 (USA 172) 
1 28054U 03048A   26117.45534196  .00000078  00000+0  64490-4 0  9999
2 28054  98.9930 140.9395 0005968 294.6170 171.9135 14.14477313162312
METEOSAT-9 (MSG-2)      
1 28912U 05049B   26116.93089426  .00000118  00000+0  00000+0 0  9995
2 28912   9.2489  54.6630 0000512 343.3476 197.6940  1.00275091  6487
DMSP 5D-3 F17 (USA 191) 
1 29522U 06050A   26117.46947051  .00000118  00000+0  83429-4 0  9993
2 29522  98.7395 125.0753 0009711 194.3405 165.7495 14.14983034  5256
FENGYUN 3A              
1 32958U 08026A   26117.43991738  .00000076  00000+0  56569-4 0  9991
2 32958  98.6857  59.2309 0007574 275.7103  84.3210 14.19559918928209
GOES 14                 
1 35491U 09033A   26117.50685041 -.00000060  00000+0  00000+0 0  9998
2 35491   1.5612  83.6210 0001783 315.4610 169.0677  1.00116851  6081
DMSP 5D-3 F18 (USA 210) 
1 35951U 09057A   26117.43723383  .00000269  00000+0  16259-3 0  9996
2 35951  98.9017  98.3252 0011866  39.9482 320.2562 14.14866757852414
EWS-G2 (GOES 15)        
1 36411U 10008A   26117.08288887  .00000013  00000+0  00000+0 0  9992
2 36411   1.1431  83.7693 0003990  23.6677 200.7369  1.00272555 59126
COMS 1                  
1 36744U 10032A   26117.47626351 -.00000350  00000+0  00000+0 0  9998
2 36744   4.6767  76.0328 0001085 316.3347 122.6920  1.00272163 50585
FENGYUN 3B              
1 37214U 10059A   26117.53636039  .00000158  00000+0  10520-3 0  9998
2 37214  98.9674 163.3253 0021622 333.1050 132.7366 14.14830335800269
SUOMI NPP               
1 37849U 11061A   26117.51988730  .00000074  00000+0  56335-4 0  9994
2 37849  98.7927  58.7505 0002776 100.9603 259.1885 14.19506144751259
METEOSAT-10 (MSG-3)     
1 38552U 12035B   26117.12058762 -.00000014  00000+0  00000+0 0  9996
2 38552   4.5534  61.2362 0002096 313.1941 244.2674  1.00268137 50344
METOP-B                 
1 38771U 12049A   26117.43731546  .00000111  00000+0  70665-4 0  9992
2 38771  98.6547 169.9385 0003427 122.1276 238.0234 14.21433439706059
INSAT-3D                
1 39216U 13038B   26117.47756986 -.00000346  00000+0  00000+0 0  9997
2 39216   1.7969  83.1481 0001506 284.4416 149.3252  1.00271714 46572
FENGYUN 3C              
1 39260U 13052A   26117.51196594  .00000081  00000+0  62497-4 0  9998
2 39260  98.4952  93.7239 0014890 164.7538 195.4088 14.15742863651398
METEOR-M 2              
1 40069U 14037A   26117.46448435  .00000227  00000+0  12316-3 0  9995
2 40069  98.5085  95.0091 0005625 172.2565 187.8700 14.21447484612117
HIMAWARI-8              
1 40267U 14060A   26117.47142307  .00000000  00000+0  00000+0 0  9993
2 40267   0.0249  98.9674 0000953 303.3516 123.5216  1.00268326 42258
FENGYUN 2G              
1 40367U 14090A   26117.46850824 -.00000308  00000+0  00000+0 0  9998
2 40367   5.5133  73.4139 0002868 145.1611 265.3398  1.00272279 41493
