[{"OBJECT_NAME":"DMSP 5D-3 F16 (USA 172)","OBJECT_ID":"2003-048A","EPOCH":"2026-04-27T10:55:41.545344","MEAN_MOTION":14.14477313,"ECCENTRICITY":0.0005968,"INCLINATION":98.993,"RA_OF_ASC_NODE":140.9395,"ARG_OF_PERICENTER":294.617,"MEAN_ANOMALY":171.9135,"EPHEMERIS_TYPE":0,"CLASSIFICATION_TYPE":"U","NORAD_CAT_ID":28054,"ELEMENT_SET_NO":999,"REV_AT_EPOCH":16231,"BSTAR":6.449e-5,"MEAN_MOTION_DOT":7.8e-7,"MEAN_MOTION_DDOT":0},{"OBJECT_NAME":"METEOSAT-9 (MSG-2)","OBJECT_ID":"2005-049B","EPOCH":"2026-04-26T22:20:29.264064","MEAN_MOTION":1.00275091,"ECCENTRICITY":5.12e-5,"INCLINATION":9.2489,"RA_OF_ASC_NODE":54.663,"ARG_OF_PERICENTER":343.3476,"MEAN_ANOMALY":197.694,"EPHEMERIS_TYPE":0,"CLASSIFICATION_TYPE":"U","NORAD_CAT_ID":28912,"ELEMENT_SET_NO":999,"REV_AT_EPOCH":648,"BSTAR":0,"MEAN_MOTION_DOT":1.18e-6,"MEAN_MOTION_DDOT":0},{"OBJECT_NAME":"DMSP 5D-3 F17 (USA 191)","OBJECT_ID":"2006-050A","EPOCH":"2026-04-27T11:16:02.252064","MEAN_MOTION":14.14983034,"ECCENTRICITY":0.0009711,"INCLINATION":98.7395,"RA_OF_ASC_NODE":125.0753,"ARG_OF_PERICENTER":194.3405,"MEAN_ANOMALY":165.7495,"EPHEMERIS_TYPE":0,"CLASSIFICATION_TYPE":"U","NORAD_CAT_ID":29522,"ELEMENT_SET_NO":999,"REV_AT_EPOCH":525,"BSTAR":8.3429e-5,"MEAN_MOTION_DOT":1.18e-6,"MEAN_MOTION_DDOT":0},{"OBJECT_NAME":"FENGYUN 3A","OBJECT_ID":"2008-026A","EPOCH":"2026-04-27T10:33:28.861632","MEAN_MOTION":14.19559918,"ECCENTRICITY":0.0007574,"INCLINATION":98.6857,"RA_OF_ASC_NODE":59.2309,"ARG_OF_PERICENTER":275.7103,"MEAN_ANOMALY":84.321,"EPHEMERIS_TYPE":0,"CLASSIFICATION_TYPE":"U","NORAD_CAT_ID":32958,"ELEMENT_SET_NO":999,"REV_AT_EPOCH":92820,"BSTAR":5.6569e-5,"MEAN_MOTION_DOT":7.6e-7,"MEAN_MOTION_DDOT":0},{"OBJECT_NAME":"GOES 14","OBJECT_ID":"2009-033A","EPOCH":"2026-04-27T12:09:51.875424","MEAN_MOTION":1.00116851,"ECCENTRICITY":0.0001783,"INCLINATION":1.5612,"RA_OF_ASC_NODE":83.621,"ARG_OF_PERICENTER":315.461,"MEAN_ANOMALY":169.0677,"EPHEMERIS_TYPE":0,"CLASSIFICATION_TYPE":"U","NORAD_CAT_ID":35491,"ELEMENT_SET_NO":999,"REV_AT_EPOCH":608,"BSTAR":0,"MEAN_MOTION_DOT":-6.0e-7,"MEAN_MOTION_DDOT":0},{"OBJECT_NAME":"DMSP 5D-3 F18 (USA 210)","OBJECT_ID":"2009-057A","EPOCH":"2026-04-27T10:29:37.002912","MEAN_MOTION":14.14866757,"ECCENTRICITY":0.0011866,"INCLINATION":98.9017,"RA_OF_ASC_NODE":98.3252,"ARG_OF_PERICENTER":39.9482,"MEAN_ANOMALY":320.2562,"EPHEMERIS_TYPE":0,"CLASSIFICATION_TYPE":"U","NORAD_CAT_ID":35951,"ELEMENT_SET_NO":999,"REV_AT_EPOCH":85241,"BSTAR":0.00016259,"MEAN_MOTION_DOT":2.69e-6,"MEAN_MOTION_DDOT":0},{"OBJECT_NAME":"EWS-G2 (GOES 15)","OBJECT_ID":"2010-008A","EPOCH":"2026-04-27T01:59:21.598368","MEAN_MOTION":1.00272555,"ECCENTRICITY":0.000399,"INCLINATION":1.1431,"RA_OF_ASC_NODE":83.7693,"ARG_OF_PERICENTER":23.6677,"MEAN_ANOMALY":200.7369,"EPHEMERIS_TYPE":0,"CLASSIFICATION_TYPE":"U","NORAD_CAT_ID":36411,"ELEMENT_SET_NO":999,"REV_AT_EPOCH":5912,"BSTAR":0,"MEAN_MOTION_DOT":1.3e-7,"MEAN_MOTION_DDOT":0},{"OBJECT_NAME":"COMS 1","OBJECT_ID":"2010-032A","EPOCH":"2026-04-27T11:25:49.167264","MEAN_MOTION":1.00272163,"ECCENTRICITY":0.0001085,"INCLINATION":4.6767,"RA_OF_ASC_NODE":76.0328,"ARG_OF_PERICENTER":316.3347,"MEAN_ANOMALY":122.692,"EPHEMERIS_TYPE":0,"CLASSIFICATION_TYPE":"U","NORAD_CAT_ID":36744,"ELEMENT_SET_NO":999,"REV_AT_EPOCH":5058,"BSTAR":0,"MEAN_MOTION_DOT":-3.5e-6,"MEAN_MOTION_DDOT":0},{"OBJECT_NAME":"FENGYUN 3B","OBJECT_ID":"2010-059A","EPOCH":"2026-04-27T12:52:21.537696","MEAN_MOTION":14.14830335,"ECCENTRICITY":0.0021622,"INCLINATION":98.9674,"RA_OF_ASC_NODE":163.3253,"ARG_OF_PERICENTER":333.105,"MEAN_ANOMALY":132.7366,"EPHEMERIS_TYPE":0,"CLASSIFICATION_TYPE":"U","NORAD_CAT_ID":37214,"ELEMENT_SET_NO":999,"REV_AT_EPOCH":80026,"BSTAR":0.0001052,"MEAN_MOTION_DOT":1.58e-6,"MEAN_MOTION_DDOT":0},{"OBJECT_NAME":"SUOMI NPP","OBJECT_ID":"2011-061A","EPOCH":"2026-04-27T12:28:38.262720","MEAN_MOTION":14.19506144,"ECCENTRICITY":0.0002776,"INCLINATION":98.7927,"RA_OF_ASC_NODE":58.7505,"ARG_OF_PERICENTER":100.9603,"MEAN_ANOMALY":259.1885,"EPHEMERIS_TYPE":0,"CLASSIFICATION_TYPE":"U","NORAD_CAT_ID":37849,"ELEMENT_SET_NO":999,"REV_AT_EPOCH":75125,"BSTAR":5.6335e-5,"MEAN_MOTION_DOT":7.4e-7,"MEAN_MOTION_DDOT":0},{"OBJECT_NAME":"METEOSAT-10 (MSG-3)","OBJECT_ID":"2012-035B","EPOCH":"2026-04-27T02:53:38.770368","MEAN_MOTION":1.00268137,"ECCENTRICITY":0.00020965,"INCLINATION":4.5534,"RA_OF_ASC_NODE":61.2362,"ARG_OF_PERICENTER":313.1941,"MEAN_ANOMALY":244.2674,"EPHEMERIS_TYPE":0,"CLASSIFICATION_TYPE":"U","NORAD_CAT_ID":38552,"ELEMENT_SET_NO":999,"REV_AT_EPOCH":5034,"BSTAR":0,"MEAN_MOTION_DOT":-1.4e-7,"MEAN_MOTION_DDOT":0},{"OBJECT_NAME":"METOP-B","OBJECT_ID":"2012-049A","EPOCH":"2026-04-27T10:29:44.055744","MEAN_MOTION":14.21433439,"ECCENTRICITY":0.0003427,"INCLINATION":98.6547,"RA_OF_ASC_NODE":169.9385,"ARG_OF_PERICENTER":122.1276,"MEAN_ANOMALY":238.0234,"EPHEMERIS_TYPE":0,"CLASSIFICATION_TYPE":"U","NORAD_CAT_ID":38771,"ELEMENT_SET_NO":999,"REV_AT_EPOCH":70605,"BSTAR":7.0665e-5,"MEAN_MOTION_DOT":1.11e-6,"MEAN_MOTION_DDOT":0},{"OBJECT_NAME":"INSAT-3D","OBJECT_ID":"2013-038B","EPOCH":"2026-04-27T11:27:42.035904","MEAN_MOTION":1.00271714,"ECCENTRICITY":0.0001506,"INCLINATION":1.7969,"RA_OF_ASC_NODE":83.1481,"ARG_OF_PERICENTER":284.4416,"MEAN_ANOMALY":149.3252,"EPHEMERIS_TYPE":0,"CLASSIFICATION_TYPE":"U","NORAD_CAT_ID":39216,"ELEMENT_SET_NO":999,"REV_AT_EPOCH":4657,"BSTAR":0,"MEAN_MOTION_DOT":-3.46e-6,"MEAN_MOTION_DDOT":0},{"OBJECT_NAME":"FENGYUN 3C","OBJECT_ID":"2013-052A","EPOCH":"2026-04-27T12:17:13.857216","MEAN_MOTION":14.15742863,"ECCENTRICITY":0.001489,"INCLINATION":98.4952,"RA_OF_ASC_NODE":93.7239,"ARG_OF_PERICENTER":164.7538,"MEAN_ANOMALY":195.4088,"EPHEMERIS_TYPE":0,"CLASSIFICATION_TYPE":"U","NORAD_CAT_ID":39260,"ELEMENT_SET_NO":999,"REV_AT_EPOCH":65139,"BSTAR":6.2497e-5,"MEAN_MOTION_DOT":8.1e-7,"MEAN_MOTION_DDOT":0},{"OBJECT_NAME":"METEOR-M 2","OBJECT_ID":"2014-037A","EPOCH":"2026-04-27T11:08:51.447840","MEAN_MOTION":14.21447484,"ECCENTRICITY":0.0005625,"INCLINATION":98.5085,"RA_OF_ASC_NODE":95.0091,"ARG_OF_PERICENTER":172.2565,"MEAN_ANOMALY":187.87,"EPHEMERIS_TYPE":0,"CLASSIFICATION_TYPE":"U","NORAD_CAT_ID":40069,"ELEMENT_SET_NO":999,"REV_AT_EPOCH":61211,"BSTAR":0.00012316,"MEAN_MOTION_DOT":2.27e-6,"MEAN_MOTION_DDOT":0},{"OBJECT_NAME":"HIMAWARI-8","OBJECT_ID":"2014-060A","EPOCH":"2026-04-27T11:18:50.953248","MEAN_MOTION":1.00268326,"ECCENTRICITY":9.53e-5,"INCLINATION":0.0249,"RA_OF_ASC_NODE":98.9674,"ARG_OF_PERICENTER":303.3516,"MEAN_ANOMALY":123.5216,"EPHEMERIS_TYPE":0,"CLASSIFICATION_TYPE":"U","NORAD_CAT_ID":40267,"ELEMENT_SET_NO":999,"REV_AT_EPOCH":4225,"BSTAR":0,"MEAN_MOTION_DOT":0,"MEAN_MOTION_DDOT":0},{"OBJECT_NAME":"FENGYUN 2G","OBJECT_ID":"2014-090A","EPOCH":"2026-04-27T11:14:39.111936","MEAN_MOTION":1.00272279,"ECCENTRICITY":0.0002868,"INCLINATION":5.5133,"RA_OF_ASC_NODE":73.4139,"ARG_OF_PERICENTER":145.1611,"MEAN_ANOMALY":265.3398,"EPHEMERIS_TYPE":0,"CLASSIFICATION_TYPE":"U","NORAD_CAT_ID":40367,"ELEMENT_SET_NO":999,"REV_AT_EPOCH":4149,"BSTAR":0,"MEAN_MOTION_DOT":-3.08e-6,"MEAN_MOTION_DDOT":0}]
